[{"OBJECT_NAME":"STARLINK-33951","OBJECT_ID":"2025-091AD","EPOCH":"2026-03-09T22:37:33.453120","MEAN_MOTION":15.2762427,"ECCENTRICITY":0.00021217,"INCLINATION":43.0055,"RA_OF_ASC_NODE":50.8562,"ARG_OF_PERICENTER":279.9149,"MEAN_ANOMALY":80.1463,"EPHEMERIS_TYPE":0,"CLASSIFICATION_TYPE":"U","NORAD_CAT_ID":63803,"ELEMENT_SET_NO":999,"REV_AT_EPOCH":4899,"BSTAR":0.0013194415,"MEAN_MOTION_DOT":0.00036275,"MEAN_MOTION_DDOT":0},{"OBJECT_NAME":"USA 61","OBJECT_ID":"1990-050C","EPOCH":"2026-03-09T12:11:25.917504","MEAN_MOTION":13.6196417,"ECCENTRICITY":0.0883009,"INCLINATION":63.2938,"RA_OF_ASC_NODE":120.5629,"ARG_OF_PERICENTER":83.2372,"MEAN_ANOMALY":286.8223,"EPHEMERIS_TYPE":0,"CLASSIFICATION_TYPE":"U","NORAD_CAT_ID":20691,"ELEMENT_SET_NO":999,"REV_AT_EPOCH":9272,"BSTAR":0.00024937203,"MEAN_MOTION_DOT":3.372e-5,"MEAN_MOTION_DDOT":0}]
